STARLINK-2433           
1 47841U 21018BG  26068.67315376  .00001860  00000+0  14375-3 0  9993
2 47841  53.0555 231.6908 0001352 104.5214 255.5925 15.06389668276871
DISKSAT B               
1 67220U 25305B   26068.81497771  .00012481  00000+0  82401-3 0  9991
2 67220  45.0018 250.2098 0003782 311.4052  48.6498 15.07484556 12310
