[{"OBJECT_NAME":"STARLINK-2433","OBJECT_ID":"2021-018BG","EPOCH":"2026-03-09T16:09:20.484864","MEAN_MOTION":15.06389668,"ECCENTRICITY":0.00013526,"INCLINATION":53.0555,"RA_OF_ASC_NODE":231.6908,"ARG_OF_PERICENTER":104.5214,"MEAN_ANOMALY":255.5925,"EPHEMERIS_TYPE":0,"CLASSIFICATION_TYPE":"U","NORAD_CAT_ID":47841,"ELEMENT_SET_NO":999,"REV_AT_EPOCH":27687,"BSTAR":0.00014374564,"MEAN_MOTION_DOT":1.86e-5,"MEAN_MOTION_DDOT":0},{"OBJECT_NAME":"DISKSAT B","OBJECT_ID":"2025-305B","EPOCH":"2026-03-09T19:33:34.074144","MEAN_MOTION":15.07484556,"ECCENTRICITY":0.00037827,"INCLINATION":45.0018,"RA_OF_ASC_NODE":250.2098,"ARG_OF_PERICENTER":311.4052,"MEAN_ANOMALY":48.6498,"EPHEMERIS_TYPE":0,"CLASSIFICATION_TYPE":"U","NORAD_CAT_ID":67220,"ELEMENT_SET_NO":999,"REV_AT_EPOCH":1231,"BSTAR":0.00082400752,"MEAN_MOTION_DOT":0.00012481,"MEAN_MOTION_DDOT":0}]
